{"type": "FeatureCollection", "features": [ {"type": "Feature", "properties": {"norad_id": 31256, "name": "FENGYUN 1C DEB", "group": "fengyun-1c-debris", "lat": -25.29291731667808, "lon": 14.690423321185918, "alt_km": 937.7373368403087, "timestamp": "2025-12-17T09:00:17.429769+00:00", "meta": {"OBJECT_NAME": "FENGYUN 1C DEB", "OBJECT_ID": "1999-025BMN", "EPOCH": "2025-12-16T20:04:59.971008", "MEAN_MOTION": 14.03331787, "ECCENTRICITY": 0.03085948, "INCLINATION": 98.6806, "RA_OF_ASC_NODE": 198.3156, "ARG_OF_PERICENTER": 102.417, "MEAN_ANOMALY": 261.1712, "EPHEMERIS_TYPE": 0, "CLASSIFICATION_TYPE": "U", "NORAD_CAT_ID": 31256, "ELEMENT_SET_NO": 999, "REV_AT_EPOCH": 65039, "BSTAR": 0.0018608255, "MEAN_MOTION_DOT": 4.395e-05, "MEAN_MOTION_DDOT": 0}, "tle": {"line1": "1 31256U 99025BMN 25350.83680522  .00004395  00000+0  18608-2 0  9996", "line2": "2 31256  98.6806 198.3156 0308594 102.4170 261.1712 14.03331787650393"}}, "geometry": {"type": "Point", "coordinates": [14.690423321185918, -25.29291731667808]}}, {"type": "Feature", "properties": {"norad_id": 31258, "name": "FENGYUN 1C DEB", "group": "fengyun-1c-debris", "lat": -6.755305658006253, "lon": 142.05680418815155, "alt_km": 524.0851067147487, "timestamp": "2025-12-17T09:00:17.429781+00:00", "meta": {"OBJECT_NAME": "FENGYUN 1C DEB", "OBJECT_ID": "1999-025BMQ", "EPOCH": "2025-12-16T09:28:51.462912", "MEAN_MOTION": 15.13895854, "ECCENTRICITY": 0.00065198, "INCLINATION": 98.846, "RA_OF_ASC_NODE": 139.8624, "ARG_OF_PERICENTER": 315.3262, "MEAN_ANOMALY": 98.8471, "EPHEMERIS_TYPE": 0, "CLASSIFICATION_TYPE": "U", "NORAD_CAT_ID": 31258, "ELEMENT_SET_NO": 999, "REV_AT_EPOCH": 97166, "BSTAR": 0.0067423844, "MEAN_MOTION_DOT": 0.0012406, "MEAN_MOTION_DDOT": 0}, "tle": {"line1": "1 31258U 99025BMQ 25350.39504008  .00124060  00000+0  67424-2 0  9995", "line2": "2 31258  98.8460 139.8624 0006519 315.3262  98.8471 15.13895854971667"}}, "geometry": {"type": "Point", "coordinates": [142.05680418815155, -6.755305658006253]}}, {"type": "Feature", "properties": {"norad_id": 31259, "name": "FENGYUN 1C DEB", "group": "fengyun-1c-debris", "lat": 56.05350286007749, "lon": 56.983772110945544, "alt_km": 864.4400923656731, "timestamp": "2025-12-17T09:00:17.429791+00:00", "meta": {"OBJECT_NAME": "FENGYUN 1C DEB", "OBJECT_ID": "1999-025BMR", "EPOCH": "2025-12-16T04:11:07.171584", "MEAN_MOTION": 14.15048705, "ECCENTRICITY": 0.00659035, "INCLINATION": 99.01, "RA_OF_ASC_NODE": 69.4046, "ARG_OF_PERICENTER": 186.5169, "MEAN_ANOMALY": 237.5219, "EPHEMERIS_TYPE": 0, "CLASSIFICATION_TYPE": "U", "NORAD_CAT_ID": 31259, "ELEMENT_SET_NO": 999, "REV_AT_EPOCH": 95618, "BSTAR": 0.0012978315, "MEAN_MOTION_DOT": 2.523e-05, "MEAN_MOTION_DDOT": 0}, "tle": {"line1": "1 31259U 99025BMR 25350.17438856  .00002523  00000+0  12978-2 0  9992", "line2": "2 31259  99.0100  69.4046 0065903 186.5169 237.5219 14.15048705956182"}}, "geometry": {"type": "Point", "coordinates": [56.983772110945544, 56.05350286007749]}}, {"type": "Feature", "properties": {"norad_id": 31260, "name": "FENGYUN 1C DEB", "group": "fengyun-1c-debris", "lat": 41.38250391152095, "lon": 76.48719634238091, "alt_km": 792.832874384173, "timestamp": "2025-12-17T09:00:17.429802+00:00", "meta": {"OBJECT_NAME": "FENGYUN 1C DEB", "OBJECT_ID": "1999-025BMS", "EPOCH": "2025-12-16T04:39:20.750688", "MEAN_MOTION": 14.36447004, "ECCENTRICITY": 0.00468058, "INCLINATION": 98.9571, "RA_OF_ASC_NODE": 247.2717, "ARG_OF_PERICENTER": 282.3881, "MEAN_ANOMALY": 231.0258, "EPHEMERIS_TYPE": 0, "CLASSIFICATION_TYPE": "U", "NORAD_CAT_ID": 31260, "ELEMENT_SET_NO": 999, "REV_AT_EPOCH": 97243, "BSTAR": 0.000696412, "MEAN_MOTION_DOT": 2.02e-05, "MEAN_MOTION_DDOT": 0}, "tle": {"line1": "1 31260U 99025BMS 25350.19399017  .00002020  00000+0  69641-3 0  9993", "line2": "2 31260  98.9571 247.2717 0046805 282.3881 231.0258 14.36447004972437"}}, "geometry": {"type": "Point", "coordinates": [76.48719634238091, 41.38250391152095]}}, {"type": "Feature", "properties": {"norad_id": 31261, "name": "FENGYUN 1C DEB", "group": "fengyun-1c-debris", "lat": -34.40288649568126, "lon": 118.78628588984938, "alt_km": 728.717004696492, "timestamp": "2025-12-17T09:00:17.429812+00:00", "meta": {"OBJECT_NAME": "FENGYUN 1C DEB", "OBJECT_ID": "1999-025BMT", "EPOCH": "2025-12-16T20:20:10.182912", "MEAN_MOTION": 14.40108973, "ECCENTRICITY": 0.00499921, "INCLINATION": 99.0154, "RA_OF_ASC_NODE": 304.4723, "ARG_OF_PERICENTER": 220.4831, "MEAN_ANOMALY": 139.2632, "EPHEMERIS_TYPE": 0, "CLASSIFICATION_TYPE": "U", "NORAD_CAT_ID": 31261, "ELEMENT_SET_NO": 999, "REV_AT_EPOCH": 97409, "BSTAR": 0.00070694482, "MEAN_MOTION_DOT": 2.216e-05, "MEAN_MOTION_DDOT": 0}, "tle": {"line1": "1 31261U 99025BMT 25350.84734008  .00002216  00000+0  70694-3 0  9996", "line2": "2 31261  99.0154 304.4723 0049992 220.4831 139.2632 14.40108973974091"}}, "geometry": {"type": "Point", "coordinates": [118.78628588984938, -34.40288649568126]}}, {"type": "Feature", "properties": {"norad_id": 31262, "name": "FENGYUN 1C DEB", "group": "fengyun-1c-debris", "lat": -48.098742593185506, "lon": -115.27826619371287, "alt_km": 870.0444498012203, "timestamp": "2025-12-17T09:00:17.429822+00:00", "meta": {"OBJECT_NAME": "FENGYUN 1C DEB", "OBJECT_ID": "1999-025BMU", "EPOCH": "2025-12-16T18:59:36.733632", "MEAN_MOTION": 14.18213534, "ECCENTRICITY": 0.00549404, "INCLINATION": 99.0021, "RA_OF_ASC_NODE": 74.3056, "ARG_OF_PERICENTER": 86.7351, "MEAN_ANOMALY": 42.7165, "EPHEMERIS_TYPE": 0, "CLASSIFICATION_TYPE": "U", "NORAD_CAT_ID": 31262, "ELEMENT_SET_NO": 999, "REV_AT_EPOCH": 95766, "BSTAR": 0.0012380836, "MEAN_MOTION_DOT": 2.539e-05, "MEAN_MOTION_DDOT": 0}, "tle": {"line1": "1 31262U 99025BMU 25350.79139738  .00002539  00000+0  12381-2 0  9996", "line2": "2 31262  99.0021  74.3056 0054940  86.7351  42.7165 14.18213534957664"}}, "geometry": {"type": "Point", "coordinates": [-115.27826619371287, -48.098742593185506]}}, {"type": "Feature", "properties": {"norad_id": 31263, "name": "FENGYUN 1C DEB", "group": "fengyun-1c-debris", "lat": 80.65153928112616, "lon": -157.18311305131212, "alt_km": 345.81989860880185, "timestamp": "2025-12-17T09:00:17.429832+00:00", "meta": {"OBJECT_NAME": "FENGYUN 1C DEB", "OBJECT_ID": "1999-025BMV", "EPOCH": "2025-12-16T17:17:37.540896", "MEAN_MOTION": 15.64470011, "ECCENTRICITY": 0.00267155, "INCLINATION": 98.9844, "RA_OF_ASC_NODE": 275.9483, "ARG_OF_PERICENTER": 120.2938, "MEAN_ANOMALY": 240.0965, "EPHEMERIS_TYPE": 0, "CLASSIFICATION_TYPE": "U", "NORAD_CAT_ID": 31263, "ELEMENT_SET_NO": 999, "REV_AT_EPOCH": 97228, "BSTAR": 0.016849837, "MEAN_MOTION_DOT": 0.0183868, "MEAN_MOTION_DDOT": 0}, "tle": {"line1": "1 31263U 99025BMV 25350.72057339  .01838680  00000+0  16850-1 0  9995", "line2": "2 31263  98.9844 275.9483 0026715 120.2938 240.0965 15.64470011972286"}}, "geometry": {"type": "Point", "coordinates": [-157.18311305131212, 80.65153928112616]}}, {"type": "Feature", "properties": {"norad_id": 31264, "name": "FENGYUN 1C DEB", "group": "fengyun-1c-debris", "lat": -27.530901933379702, "lon": 63.68447173411095, "alt_km": 836.4746397081244, "timestamp": "2025-12-17T09:00:17.429842+00:00", "meta": {"OBJECT_NAME": "FENGYUN 1C DEB", "OBJECT_ID": "1999-025BMW", "EPOCH": "2025-12-15T04:17:24.959040", "MEAN_MOTION": 14.18595666, "ECCENTRICITY": 0.00010354, "INCLINATION": 99.1143, "RA_OF_ASC_NODE": 246.2287, "ARG_OF_PERICENTER": 9.578, "MEAN_ANOMALY": 147.3469, "EPHEMERIS_TYPE": 0, "CLASSIFICATION_TYPE": "U", "NORAD_CAT_ID": 31264, "ELEMENT_SET_NO": 999, "REV_AT_EPOCH": 96463, "BSTAR": 0.00056718639, "MEAN_MOTION_DOT": 1.128e-05, "MEAN_MOTION_DDOT": 0}, "tle": {"line1": "1 31264U 99025BMW 25349.17876110  .00001128  00000+0  56719-3 0  9997", "line2": "2 31264  99.1143 246.2287 0001035   9.5780 147.3469 14.18595666964637"}}, "geometry": {"type": "Point", "coordinates": [63.68447173411095, -27.530901933379702]}}, {"type": "Feature", "properties": {"norad_id": 31266, "name": "FENGYUN 1C DEB", "group": "fengyun-1c-debris", "lat": -55.94830475028062, "lon": -11.393725220885527, "alt_km": 745.0577676314433, "timestamp": "2025-12-17T09:00:17.429853+00:00", "meta": {"OBJECT_NAME": "FENGYUN 1C DEB", "OBJECT_ID": "1999-025BMY", "EPOCH": "2025-12-16T10:21:51.917760", "MEAN_MOTION": 14.22341482, "ECCENTRICITY": 0.01295385, "INCLINATION": 99.2579, "RA_OF_ASC_NODE": 333.65, "ARG_OF_PERICENTER": 273.6542, "MEAN_ANOMALY": 240.8693, "EPHEMERIS_TYPE": 0, "CLASSIFICATION_TYPE": "U", "NORAD_CAT_ID": 31266, "ELEMENT_SET_NO": 999, "REV_AT_EPOCH": 97258, "BSTAR": 0.00031666555, "MEAN_MOTION_DOT": 7.17e-06, "MEAN_MOTION_DDOT": 0}, "tle": {"line1": "1 31266U 99025BMY 25350.43185090  .00000717  00000+0  31667-3 0  9998", "line2": "2 31266  99.2579 333.6500 0129538 273.6542 240.8693 14.22341482972582"}}, "geometry": {"type": "Point", "coordinates": [-11.393725220885527, -55.94830475028062]}}, {"type": "Feature", "properties": {"norad_id": 31268, "name": "FENGYUN 1C DEB", "group": "fengyun-1c-debris", "lat": -1.3410882634118353, "lon": -146.77609507235974, "alt_km": 839.3924512170634, "timestamp": "2025-12-17T09:00:17.429863+00:00", "meta": {"OBJECT_NAME": "FENGYUN 1C DEB", "OBJECT_ID": "1999-025BNA", "EPOCH": "2025-12-13T20:28:59.966112", "MEAN_MOTION": 14.06415523, "ECCENTRICITY": 0.00495712, "INCLINATION": 98.7556, "RA_OF_ASC_NODE": 30.024, "ARG_OF_PERICENTER": 180.2607, "MEAN_ANOMALY": 179.8544, "EPHEMERIS_TYPE": 0, "CLASSIFICATION_TYPE": "U", "NORAD_CAT_ID": 31268, "ELEMENT_SET_NO": 999, "REV_AT_EPOCH": 62048, "BSTAR": 0.00090714334, "MEAN_MOTION_DOT": 1.473e-05, "MEAN_MOTION_DDOT": 0}, "tle": {"line1": "1 31268U 99025BNA 25347.85347183  .00001473  00000+0  90714-3 0  9993", "line2": "2 31268  98.7556  30.0240 0049571 180.2607 179.8544 14.06415523620480"}}, "geometry": {"type": "Point", "coordinates": [-146.77609507235974, -1.3410882634118353]}}]}